{
  "type": "FeatureCollection",
  "features": [
    {
      "type": "Feature",
      "properties": {
        "norad_id": 34790,
        "name": "COSMOS 2251 DEB",
        "group": "cosmos-2251-debris",
        "lat": 73.07626497503885,
        "lon": -30.590129510151677,
        "alt_km": 874.392818921453,
        "timestamp": "2025-12-26T05:31:12.901648+00:00",
        "meta_object_name": "COSMOS 2251 DEB",
        "meta_object_id": "1993-036AAT",
        "meta_epoch": "2025-12-25T15:51:16.162272",
        "meta_mean_motion": 14.24671167,
        "meta_eccentricity": 0.0100473,
        "meta_inclination": 74.0524,
        "meta_ra_of_asc_node": 220.442,
        "meta_arg_of_pericenter": 279.3563,
        "meta_mean_anomaly": 137.0748,
        "meta_ephemeris_type": 0,
        "meta_classification_type": "U",
        "meta_norad_cat_id": 34790,
        "meta_element_set_no": 999,
        "meta_rev_at_epoch": 86757,
        "meta_bstar": 0.00054898,
        "meta_mean_motion_dot": 1.32e-05,
        "meta_mean_motion_ddot": 0,
        "tle_line1": "1 34790U 93036AAT 25359.66060373  .00001320  00000+0  54898-3 0  9991",
        "tle_line2": "2 34790  74.0524 220.4420 0100473 279.3563 137.0748 14.24671167867573"
      },
      "geometry": {
        "type": "Point",
        "coordinates": [
          -30.590129510151677,
          73.07626497503885
        ]
      }
    },
    {
      "type": "Feature",
      "properties": {
        "norad_id": 34792,
        "name": "COSMOS 2251 DEB",
        "group": "cosmos-2251-debris",
        "lat": 51.75112611126726,
        "lon": -57.21495657130215,
        "alt_km": 704.2702479000045,
        "timestamp": "2025-12-26T05:31:12.901657+00:00",
        "meta_object_name": "COSMOS 2251 DEB",
        "meta_object_id": "1993-036AAV",
        "meta_epoch": "2025-12-25T14:40:51.402720",
        "meta_mean_motion": 14.56064533,
        "meta_eccentricity": 0.0012383,
        "meta_inclination": 74.018,
        "meta_ra_of_asc_node": 145.2771,
        "meta_arg_of_pericenter": 240.3176,
        "meta_mean_anomaly": 245.2413,
        "meta_ephemeris_type": 0,
        "meta_classification_type": "U",
        "meta_norad_cat_id": 34792,
        "meta_element_set_no": 999,
        "meta_rev_at_epoch": 87837,
        "meta_bstar": 0.0012128,
        "meta_mean_motion_dot": 5.325e-05,
        "meta_mean_motion_ddot": 0,
        "tle_line1": "1 34792U 93036AAV 25359.61170605  .00005325  00000+0  12128-2 0  9996",
        "tle_line2": "2 34792  74.0180 145.2771 0012383 240.3176 245.2413 14.56064533878375"
      },
      "geometry": {
        "type": "Point",
        "coordinates": [
          -57.21495657130215,
          51.75112611126726
        ]
      }
    },
    {
      "type": "Feature",
      "properties": {
        "norad_id": 34793,
        "name": "COSMOS 2251 DEB",
        "group": "cosmos-2251-debris",
        "lat": 35.8426115065502,
        "lon": 33.483507629497765,
        "alt_km": 781.4371885385854,
        "timestamp": "2025-12-26T05:31:12.901668+00:00",
        "meta_object_name": "COSMOS 2251 DEB",
        "meta_object_id": "1993-036AAW",
        "meta_epoch": "2025-12-25T19:24:04.961664",
        "meta_mean_motion": 14.38664126,
        "meta_eccentricity": 0.00508769,
        "meta_inclination": 74.0015,
        "meta_ra_of_asc_node": 226.2232,
        "meta_arg_of_pericenter": 17.0479,
        "meta_mean_anomaly": 102.0932,
        "meta_ephemeris_type": 0,
        "meta_classification_type": "U",
        "meta_norad_cat_id": 34793,
        "meta_element_set_no": 999,
        "meta_rev_at_epoch": 87518,
        "meta_bstar": 0.00021915048,
        "meta_mean_motion_dot": 6.55e-06,
        "meta_mean_motion_ddot": 0,
        "tle_line1": "1 34793U 93036AAW 25359.80839076  .00000655  00000+0  21915-3 0  9998",
        "tle_line2": "2 34793  74.0015 226.2232 0050876  17.0479 102.0932 14.38664126875185"
      },
      "geometry": {
        "type": "Point",
        "coordinates": [
          33.483507629497765,
          35.8426115065502
        ]
      }
    },
    {
      "type": "Feature",
      "properties": {
        "norad_id": 34796,
        "name": "COSMOS 2251 DEB",
        "group": "cosmos-2251-debris",
        "lat": 5.043958103527418,
        "lon": -167.50043486528287,
        "alt_km": 712.780578215592,
        "timestamp": "2025-12-26T05:31:12.901677+00:00",
        "meta_object_name": "COSMOS 2251 DEB",
        "meta_object_id": "1993-036AAZ",
        "meta_epoch": "2025-12-25T13:03:59.133024",
        "meta_mean_motion": 14.48745914,
        "meta_eccentricity": 0.0100284,
        "meta_inclination": 74.0282,
        "meta_ra_of_asc_node": 192.3362,
        "meta_arg_of_pericenter": 291.6358,
        "meta_mean_anomaly": 98.4563,
        "meta_ephemeris_type": 0,
        "meta_classification_type": "U",
        "meta_norad_cat_id": 34796,
        "meta_element_set_no": 999,
        "meta_rev_at_epoch": 88213,
        "meta_bstar": 0.00055203,
        "meta_mean_motion_dot": 2.189e-05,
        "meta_mean_motion_ddot": 0,
        "tle_line1": "1 34796U 93036AAZ 25359.54443441  .00002189  00000+0  55203-3 0  9990",
        "tle_line2": "2 34796  74.0282 192.3362 0100284 291.6358  98.4563 14.48745914882133"
      },
      "geometry": {
        "type": "Point",
        "coordinates": [
          -167.50043486528287,
          5.043958103527418
        ]
      }
    },
    {
      "type": "Feature",
      "properties": {
        "norad_id": 34797,
        "name": "COSMOS 2251 DEB",
        "group": "cosmos-2251-debris",
        "lat": -25.15505123657659,
        "lon": -97.39385673143337,
        "alt_km": 706.2769828604878,
        "timestamp": "2025-12-26T05:31:12.901687+00:00",
        "meta_object_name": "COSMOS 2251 DEB",
        "meta_object_id": "1993-036ABA",
        "meta_epoch": "2025-12-22T12:22:54.757056",
        "meta_mean_motion": 14.42950692,
        "meta_eccentricity": 0.00710542,
        "meta_inclination": 73.9783,
        "meta_ra_of_asc_node": 81.7691,
        "meta_arg_of_pericenter": 193.6898,
        "meta_mean_anomaly": 166.2334,
        "meta_ephemeris_type": 0,
        "meta_classification_type": "U",
        "meta_norad_cat_id": 34797,
        "meta_element_set_no": 999,
        "meta_rev_at_epoch": 87556,
        "meta_bstar": 0.0021692417,
        "meta_mean_motion_dot": 7.461e-05,
        "meta_mean_motion_ddot": 0,
        "tle_line1": "1 34797U 93036ABA 25356.51591154  .00007461  00000+0  21692-2 0  9992",
        "tle_line2": "2 34797  73.9783  81.7691 0071054 193.6898 166.2334 14.42950692875560"
      },
      "geometry": {
        "type": "Point",
        "coordinates": [
          -97.39385673143337,
          -25.15505123657659
        ]
      }
    },
    {
      "type": "Feature",
      "properties": {
        "norad_id": 34814,
        "name": "COSMOS 2251 DEB",
        "group": "cosmos-2251-debris",
        "lat": -70.66246610348963,
        "lon": 175.83038045196525,
        "alt_km": 763.0814990809095,
        "timestamp": "2025-12-26T05:31:12.901697+00:00",
        "meta_object_name": "COSMOS 2251 DEB",
        "meta_object_id": "1993-036ABD",
        "meta_epoch": "2025-12-23T04:46:16.254336",
        "meta_mean_motion": 14.3693492,
        "meta_eccentricity": 0.00554769,
        "meta_inclination": 73.8962,
        "meta_ra_of_asc_node": 306.0405,
        "meta_arg_of_pericenter": 193.3771,
        "meta_mean_anomaly": 230.9861,
        "meta_ephemeris_type": 0,
        "meta_classification_type": "U",
        "meta_norad_cat_id": 34814,
        "meta_element_set_no": 999,
        "meta_rev_at_epoch": 87483,
        "meta_bstar": 0.00068608274,
        "meta_mean_motion_dot": 2.041e-05,
        "meta_mean_motion_ddot": 0,
        "tle_line1": "1 34814U 93036ABD 25357.19879924  .00002041  00000+0  68608-3 0  9999",
        "tle_line2": "2 34814  73.8962 306.0405 0055476 193.3771 230.9861 14.36934920874833"
      },
      "geometry": {
        "type": "Point",
        "coordinates": [
          175.83038045196525,
          -70.66246610348963
        ]
      }
    },
    {
      "type": "Feature",
      "properties": {
        "norad_id": 34815,
        "name": "COSMOS 2251 DEB",
        "group": "cosmos-2251-debris",
        "lat": -73.38666007547934,
        "lon": 108.82952290757882,
        "alt_km": 601.5742110541687,
        "timestamp": "2025-12-26T05:31:12.901706+00:00",
        "meta_object_name": "COSMOS 2251 DEB",
        "meta_object_id": "1993-036ABE",
        "meta_epoch": "2025-12-25T15:19:40.992960",
        "meta_mean_motion": 14.78451981,
        "meta_eccentricity": 0.0058738,
        "meta_inclination": 74.0439,
        "meta_ra_of_asc_node": 216.4709,
        "meta_arg_of_pericenter": 282.86,
        "meta_mean_anomaly": 76.6017,
        "meta_ephemeris_type": 0,
        "meta_classification_type": "U",
        "meta_norad_cat_id": 34815,
        "meta_element_set_no": 999,
        "meta_rev_at_epoch": 88818,
        "meta_bstar": 0.00073994,
        "meta_mean_motion_dot": 5.523e-05,
        "meta_mean_motion_ddot": 0,
        "tle_line1": "1 34815U 93036ABE 25359.63866890  .00005523  00000+0  73994-3 0  9991",
        "tle_line2": "2 34815  74.0439 216.4709 0058738 282.8600  76.6017 14.78451981888184"
      },
      "geometry": {
        "type": "Point",
        "coordinates": [
          108.82952290757882,
          -73.38666007547934
        ]
      }
    }
  ]
}